start=new Date('2021-12-07T00:00:00.000Z').valueOf();
sats=[{"EPHEMERIS_TYPE":"0","ELEMENT_SET_NO":"999","LAUNCH_DATE":"2020-11-25","OBJECT_TYPE":"PAYLOAD","INCLINATION":"53.0542","COUNTRY_CODE":"US","NORAD_CAT_ID":"47130","OBJECT_NAME":"STARLINK-1839","MEAN_MOTION_DOT":"0.00003875","REF_FRAME":"TEME","BSTAR":"0.00027887000000","SEMIMAJOR_AXIS":"6925.334","REV_AT_EPOCH":"5750","MEAN_MOTION_DDOT":"0.0000000000000","MEAN_ANOMALY":"282.7518","ECCENTRICITY":"0.00012610","TLE_LINE2":"2 47130  53.0542  86.8494 0001261  77.3612 282.7518 15.06404806 57505","MEAN_MOTION":"15.06404806","MEAN_ELEMENT_THEORY":"SGP4","SITE":"AFETR","OBJECT_ID":"2020-088J","TLE_LINE1":"1 47130U 20088J   21340.89862067  .00003875  00000-0  27887-3 0  9997","PERIOD":"95.592","GP_ID":"191235123","RCS_SIZE":"LARGE","APOAPSIS":"548.072","RA_OF_ASC_NODE":"86.8494","CENTER_NAME":"EARTH","EPOCH":"2021-12-06T21:34:00.825888","FILE":"3234296","DECAY_DATE":null,"ARG_OF_PERICENTER":"77.3612","PERIAPSIS":"546.326","CLASSIFICATION_TYPE":"U","TIME_SYSTEM":"UTC"},{"SEMIMAJOR_AXIS":"6770.116","BSTAR":"0.00015137000000","REF_FRAME":"TEME","MEAN_ANOMALY":"310.2991","REV_AT_EPOCH":"5839","MEAN_MOTION_DDOT":"0.0000000000000","ECCENTRICITY":"0.00030280","MEAN_ELEMENT_THEORY":"SGP4","MEAN_MOTION":"15.58506380","TLE_LINE2":"2 47131  53.0529  22.2520 0003028  49.8285 310.2991 15.58506380 58395","ELEMENT_SET_NO":"999","EPHEMERIS_TYPE":"0","COUNTRY_CODE":"US","INCLINATION":"53.0529","OBJECT_TYPE":"PAYLOAD","LAUNCH_DATE":"2020-11-25","NORAD_CAT_ID":"47131","MEAN_MOTION_DOT":"0.00011285","OBJECT_NAME":"STARLINK-1840","PERIAPSIS":"389.931","DECAY_DATE":null,"ARG_OF_PERICENTER":"49.8285","TIME_SYSTEM":"UTC","CLASSIFICATION_TYPE":"U","TLE_LINE1":"1 47131U 20088K   21340.60034940  .00011285  00000-0  15137-3 0  9997","OBJECT_ID":"2020-088K","SITE":"AFETR","APOAPSIS":"394.031","GP_ID":"191235874","RCS_SIZE":"LARGE","PERIOD":"92.396","RA_OF_ASC_NODE":"22.2520","FILE":"3234296","EPOCH":"2021-12-06T14:24:30.188160","CENTER_NAME":"EARTH"},{"APOAPSIS":"548.315","GP_ID":"191205021","RCS_SIZE":"LARGE","PERIOD":"95.592","TLE_LINE1":"1 47133U 20088M   21340.50975026 -.00000146  00000-0  91251-5 0  9995","OBJECT_ID":"2020-088M","SITE":"AFETR","FILE":"3234035","EPOCH":"2021-12-06T12:14:02.422464","CENTER_NAME":"EARTH","RA_OF_ASC_NODE":"68.6768","PERIAPSIS":"546.130","ARG_OF_PERICENTER":"75.9797","DECAY_DATE":null,"TIME_SYSTEM":"UTC","CLASSIFICATION_TYPE":"U","INCLINATION":"53.0396","COUNTRY_CODE":"US","OBJECT_TYPE":"PAYLOAD","LAUNCH_DATE":"2020-11-25","ELEMENT_SET_NO":"999","EPHEMERIS_TYPE":"0","MEAN_MOTION_DOT":"-0.00000146","OBJECT_NAME":"STARLINK-1843","NORAD_CAT_ID":"47133","MEAN_ANOMALY":"284.1367","REV_AT_EPOCH":"5772","MEAN_MOTION_DDOT":"0.0000000000000","SEMIMAJOR_AXIS":"6925.358","BSTAR":"0.00000912510000","REF_FRAME":"TEME","MEAN_ELEMENT_THEORY":"SGP4","MEAN_MOTION":"15.06397058","TLE_LINE2":"2 47133  53.0396  68.6768 0001578  75.9797 284.1367 15.06397058 57728","ECCENTRICITY":"0.00015780"},{"ECCENTRICITY":"0.00026120","MEAN_ELEMENT_THEORY":"SGP4","MEAN_MOTION":"15.06397448","TLE_LINE2":"2 47134  53.0552  77.8342 0002612 169.5291 190.5753 15.06397448 57612","SEMIMAJOR_AXIS":"6925.356","BSTAR":"0.00003028500000","REF_FRAME":"TEME","REV_AT_EPOCH":"5761","MEAN_MOTION_DDOT":"0.0000000000000","MEAN_ANOMALY":"190.5753","NORAD_CAT_ID":"47134","MEAN_MOTION_DOT":"0.00000169","OBJECT_NAME":"STARLINK-1844","EPHEMERIS_TYPE":"0","ELEMENT_SET_NO":"999","OBJECT_TYPE":"PAYLOAD","LAUNCH_DATE":"2020-11-25","COUNTRY_CODE":"US","INCLINATION":"53.0552","TIME_SYSTEM":"UTC","CLASSIFICATION_TYPE":"U","DECAY_DATE":null,"ARG_OF_PERICENTER":"169.5291","PERIAPSIS":"545.412","RA_OF_ASC_NODE":"77.8342","CENTER_NAME":"EARTH","FILE":"3234296","EPOCH":"2021-12-06T16:22:10.414272","TLE_LINE1":"1 47134U 20088N   21340.68206498  .00000169  00000-0  30285-4 0  9998","SITE":"AFETR","OBJECT_ID":"2020-088N","PERIOD":"95.592","APOAPSIS":"549.030","RCS_SIZE":"LARGE","GP_ID":"191234372"},{"CENTER_NAME":"EARTH","EPOCH":"2021-12-06T12:03:25.837632","FILE":"3234035","RA_OF_ASC_NODE":"68.6384","PERIOD":"95.592","GP_ID":"191206023","RCS_SIZE":"LARGE","APOAPSIS":"548.132","SITE":"AFETR","OBJECT_ID":"2020-088P","TLE_LINE1":"1 47135U 20088P   21340.50238238 -.00000034  00000-0  16629-4 0  9995","CLASSIFICATION_TYPE":"U","TIME_SYSTEM":"UTC","DECAY_DATE":null,"ARG_OF_PERICENTER":"76.6779","PERIAPSIS":"546.300","OBJECT_NAME":"STARLINK-1845","MEAN_MOTION_DOT":"-0.00000034","NORAD_CAT_ID":"47135","LAUNCH_DATE":"2020-11-25","OBJECT_TYPE":"PAYLOAD","INCLINATION":"53.0571","COUNTRY_CODE":"US","EPHEMERIS_TYPE":"0","ELEMENT_SET_NO":"999","MEAN_MOTION":"15.06399236","TLE_LINE2":"2 47135  53.0571  68.6384 0001323  76.6779 283.4358 15.06399236 57727","MEAN_ELEMENT_THEORY":"SGP4","ECCENTRICITY":"0.00013230","MEAN_MOTION_DDOT":"0.0000000000000","REV_AT_EPOCH":"5772","MEAN_ANOMALY":"283.4358","BSTAR":"0.00001662900000","REF_FRAME":"TEME","SEMIMAJOR_AXIS":"6925.351"},{"COUNTRY_CODE":"US","INCLINATION":"53.0564","OBJECT_TYPE":"PAYLOAD","LAUNCH_DATE":"2020-11-25","ELEMENT_SET_NO":"999","EPHEMERIS_TYPE":"0","MEAN_MOTION_DOT":"-0.00001111","OBJECT_NAME":"STARLINK-1846","NORAD_CAT_ID":"47136","MEAN_ANOMALY":"292.8498","REV_AT_EPOCH":"5762","MEAN_MOTION_DDOT":"0.0000000000000","SEMIMAJOR_AXIS":"6925.373","REF_FRAME":"TEME","BSTAR":"-0.00005573300000","MEAN_ELEMENT_THEORY":"SGP4","MEAN_MOTION":"15.06392002","TLE_LINE2":"2 47136  53.0564  77.4441 0001302  67.2628 292.8498 15.06392002 57620","ECCENTRICITY":"0.00013020","APOAPSIS":"548.140","GP_ID":"191235374","RCS_SIZE":"LARGE","PERIOD":"95.593","TLE_LINE1":"1 47136U 20088Q   21340.76685558 -.00001111  00000-0 -55733-4 0  9992","SITE":"AFETR","OBJECT_ID":"2020-088Q","FILE":"3234296","EPOCH":"2021-12-06T18:24:16.322112","CENTER_NAME":"EARTH","RA_OF_ASC_NODE":"77.4441","PERIAPSIS":"546.336","ARG_OF_PERICENTER":"67.2628","DECAY_DATE":null,"TIME_SYSTEM":"UTC","CLASSIFICATION_TYPE":"U"},{"OBJECT_NAME":"STARLINK-1849","MEAN_MOTION_DOT":"-0.00000073","NORAD_CAT_ID":"47137","INCLINATION":"53.0554","COUNTRY_CODE":"US","LAUNCH_DATE":"2020-11-25","OBJECT_TYPE":"PAYLOAD","ELEMENT_SET_NO":"999","EPHEMERIS_TYPE":"0","MEAN_MOTION":"15.06385841","TLE_LINE2":"2 47137  53.0554  67.8263 0001093  70.8362 289.2746 15.06385841 57750","MEAN_ELEMENT_THEORY":"SGP4","ECCENTRICITY":"0.00010930","MEAN_ANOMALY":"289.2746","REV_AT_EPOCH":"5775","MEAN_MOTION_DDOT":"0.0000000000000","REF_FRAME":"TEME","BSTAR":"0.00001401400000","SEMIMAJOR_AXIS":"6925.392","EPOCH":"2021-12-06T16:23:31.379712","FILE":"3234296","CENTER_NAME":"EARTH","RA_OF_ASC_NODE":"67.8263","GP_ID":"191234122","RCS_SIZE":"LARGE","APOAPSIS":"548.014","PERIOD":"95.593","OBJECT_ID":"2020-088R","SITE":"AFETR","TLE_LINE1":"1 47137U 20088R   21340.68300208 -.00000073  00000-0  14014-4 0  9992","CLASSIFICATION_TYPE":"U","TIME_SYSTEM":"UTC","PERIAPSIS":"546.500","DECAY_DATE":null,"ARG_OF_PERICENTER":"70.8362"},{"ELEMENT_SET_NO":"999","EPHEMERIS_TYPE":"0","INCLINATION":"53.0571","COUNTRY_CODE":"US","OBJECT_TYPE":"PAYLOAD","LAUNCH_DATE":"2020-11-25","NORAD_CAT_ID":"47138","MEAN_MOTION_DOT":"-0.00000460","OBJECT_NAME":"STARLINK-1850","SEMIMAJOR_AXIS":"6925.376","BSTAR":"-0.00001198900000","REF_FRAME":"TEME","MEAN_ANOMALY":"281.8682","REV_AT_EPOCH":"5770","MEAN_MOTION_DDOT":"0.0000000000000","ECCENTRICITY":"0.00015120","MEAN_ELEMENT_THEORY":"SGP4","MEAN_MOTION":"15.06391094","TLE_LINE2":"2 47138  53.0571  72.3644 0001512  78.2477 281.8682 15.06391094 57708","TLE_LINE1":"1 47138U 20088S   21340.78295742 -.00000460  00000-0 -11989-4 0  9999","SITE":"AFETR","OBJECT_ID":"2020-088S","APOAPSIS":"548.288","GP_ID":"191234873","RCS_SIZE":"LARGE","PERIOD":"95.593","RA_OF_ASC_NODE":"72.3644","FILE":"3234296","EPOCH":"2021-12-06T18:47:27.521088","CENTER_NAME":"EARTH","PERIAPSIS":"546.194","DECAY_DATE":null,"ARG_OF_PERICENTER":"78.2477","TIME_SYSTEM":"UTC","CLASSIFICATION_TYPE":"U"},{"CLASSIFICATION_TYPE":"U","TIME_SYSTEM":"UTC","DECAY_DATE":null,"ARG_OF_PERICENTER":"85.5038","PERIAPSIS":"546.343","CENTER_NAME":"EARTH","EPOCH":"2021-12-06T18:40:49.239552","FILE":"3234296","RA_OF_ASC_NODE":"82.3992","PERIOD":"95.593","GP_ID":"191235124","RCS_SIZE":"LARGE","APOAPSIS":"548.162","OBJECT_ID":"2020-088T","SITE":"AFETR","TLE_LINE1":"1 47139U 20088T   21340.77834768 -.00000052  00000-0  15407-4 0  9991","TLE_LINE2":"2 47139  53.0560  82.3992 0001313  85.5038 274.6101 15.06387314 57556","MEAN_MOTION":"15.06387314","MEAN_ELEMENT_THEORY":"SGP4","ECCENTRICITY":"0.00013130","REV_AT_EPOCH":"5755","MEAN_MOTION_DDOT":"0.0000000000000","MEAN_ANOMALY":"274.6101","REF_FRAME":"TEME","BSTAR":"0.00001540700000","SEMIMAJOR_AXIS":"6925.387","OBJECT_NAME":"STARLINK-1852","MEAN_MOTION_DOT":"-0.00000052","NORAD_CAT_ID":"47139","LAUNCH_DATE":"2020-11-25","OBJECT_TYPE":"PAYLOAD","INCLINATION":"53.0560","COUNTRY_CODE":"US","EPHEMERIS_TYPE":"0","ELEMENT_SET_NO":"999"},{"CENTER_NAME":"EARTH","FILE":"3234296","EPOCH":"2021-12-06T14:18:57.462624","RA_OF_ASC_NODE":"18.8358","PERIOD":"90.994","APOAPSIS":"331.946","GP_ID":"191235875","RCS_SIZE":"LARGE","TLE_LINE1":"1 47140U 20088U   21340.59649841  .00072847  00000-0  34037-3 0  9998","SITE":"AFETR","OBJECT_ID":"2020-088U","TIME_SYSTEM":"UTC","CLASSIFICATION_TYPE":"U","ARG_OF_PERICENTER":"44.5119","DECAY_DATE":null,"PERIAPSIS":"314.679","MEAN_MOTION_DOT":"0.00072847","OBJECT_NAME":"STARLINK-1853","NORAD_CAT_ID":"47140","OBJECT_TYPE":"PAYLOAD","LAUNCH_DATE":"2020-11-25","COUNTRY_CODE":"US","INCLINATION":"53.0487","EPHEMERIS_TYPE":"0","ELEMENT_SET_NO":"999","MEAN_ELEMENT_THEORY":"SGP4","MEAN_MOTION":"15.82522442","TLE_LINE2":"2 47140  53.0487  18.8358 0012883  44.5119 315.6935 15.82522442 58431","ECCENTRICITY":"0.00128830","MEAN_MOTION_DDOT":"0.0000000000000","REV_AT_EPOCH":"5843","MEAN_ANOMALY":"315.6935","SEMIMAJOR_AXIS":"6701.447","BSTAR":"0.00034037000000","REF_FRAME":"TEME"}];
